2024-199AK              
1 61768U 24199AK  25195.71208480  .00009633  00000+0  29168-3 0  9994
2 61768  97.3494  64.4257 0009569  76.0682 284.1625 15.34335280 82341
KOSAR                   
1 61769U 24199AL  25195.69758844  .00010421  00000+0  30689-3 0  9993
2 61769  97.3490  64.5805 0009386  76.4847 283.7442 15.35194626 82353
SITRO-AIS 48            
1 61771U 24199AN  25195.69892116  .00011878  00000+0  35618-3 0  9991
2 61771  97.3464  64.0346 0014148  78.3384 281.9446 15.34531138 82324
HYPERVIEW 1G (RS66S)    
1 61772U 24199AP  25195.72305622  .00014736  00000+0  41230-3 0  9990
2 61772  97.3483  64.5277 0014961  71.0286 289.2578 15.36643218 82353
SITRO-AIS 47            
1 61773U 24199AQ  25195.75279704  .00011713  00000+0  34941-3 0  9998
2 61773  97.3465  64.1197 0014235  79.0266 281.2578 15.34697579 82338
SITRO-AIS 46            
1 61774U 24199AR  25195.72262949  .00011921  00000+0  35146-3 0  9998
2 61774  97.3462  64.1485 0014198  79.2996 280.9845 15.35063773 82333
2024-199AS              
1 61775U 24199AS  25195.70512706  .00008329  00000+0  26259-3 0  9999
2 61775  97.3501  63.5353 0021637  61.2519 299.0893 15.32907659 82288
SITRO-AIS 40            
1 61776U 24199AT  25195.72502455  .00012441  00000+0  36660-3 0  9999
2 61776  97.3462  64.1493 0014309  79.2150 281.0703 15.35069616 85486
2024-199AU              
1 61777U 24199AU  25195.70483505  .00008194  00000+0  26065-3 0  9990
2 61777  97.3499  63.5294 0019813  59.8710 300.4493 15.32665341 82281
SITRO-AIS 39            
1 61778U 24199AV  25195.72180968  .00012061  00000+0  36289-3 0  9997
2 61778  97.3464  64.0057 0014482  79.1392 281.1480 15.34414483 82322
ALTAIR (RS65S)          
1 61779U 24199AW  25195.74500129  .00005506  00000+0  19520-3 0  9990
2 61779  97.3511  63.1911 0017149  74.9225 285.3911 15.29361133 85411
SITRO-AIS 37            
1 61780U 24199AX  25195.71018220  .00012133  00000+0  36277-3 0  9997
2 61780  97.3471  64.0488 0014826  79.7067 280.5847 15.34608460 82328
ASRTU-1 (AO-123)        
1 61781U 24199AY  25195.73392866  .00004679  00000+0  16947-3 0  9999
2 61781  97.3501  63.0343 0017450  75.3813 284.9360 15.28734605 82253
TUSUR GO (RS78S)        
1 61782U 24199AZ  25195.73611688  .00017529  00000+0  46771-3 0  9992
2 61782  97.3476  64.6559 0015158  70.3313 289.9566 15.38075019 82367
ZIMSAT-2                
1 61783U 24199BA  25195.71142375  .00026686  00000+0  60855-3 0  9996
2 61783  97.3455  65.4180 0014432  68.7983 291.4805 15.42775003 85566
SAMSAT-IONOSPHERE (RS7*)
1 61784U 24199BB  25195.73398740  .00011637  00000+0  35031-3 0  9996
2 61784  97.3490  64.0767 0016256  72.5569 287.7450 15.34380310 85479
RTU MIREA 1 (RS51S)     
1 61785U 24199BC  25195.69514701  .00012163  00000+0  36033-3 0  9997
2 61785  97.3488  64.1251 0015936  71.2576 289.0395 15.34880570 82321
SITRO-AIS 38            
1 61786U 24199BD  25195.72835365  .00011883  00000+0  35783-3 0  9993
2 61786  97.3469  64.0089 0014591  80.7820 279.5072 15.34391478 82322
2024-199BE              
1 61787U 24199BE  25195.73157952  .00005485  00000+0  19693-3 0  9997
2 61787  97.3507  63.0511 0017515  75.0879 285.2300 15.28942184 85404
SITRO-AIS 45            
1 61788U 24199BF  25195.71111340  .00012109  00000+0  36338-3 0  9993
2 61788  97.3459  64.0045 0014514  79.6202 280.6676 15.34496316 82309
SITRO-AIS 17            
1 61789U 24199BG  25195.75055895  .00002541  00000+0  23462-3 0  9993
2 61789  97.3556  51.1995 0007934 125.1637 235.0329 14.95408997 81566
SITRO-AIS 18            
1 61790U 24199BH  25195.62094802  .00002447  00000+0  22633-3 0  9996
2 61790  97.3553  51.0576 0007834 123.3955 236.8018 14.95373983 81549
PROTOSAT-1              
1 61793U 24201B   25195.62697359  .00014290  00000+0  13483-2 0  9990
2 61793  97.9162 104.8944 0006033 146.6948 213.4652 14.93857266 37310
STARLINK-32362          
1 61845U 24202A   25195.52714932 -.00000674  00000+0 -14983-4 0  9996
2 61845  42.9975 131.7742 0000898 274.0279  86.0469 15.27574456 39622
STARLINK-32472          
1 61846U 24202B   25195.24004983  .00000352  00000+0  22308-4 0  9995
2 61846  43.0003 133.9217 0001272 266.2535  93.8171 15.27574578 38982
STARLINK-32352          
1 61847U 24202C   25195.52201196 -.00001151  00000+0 -32326-4 0  9993
2 61847  42.9993 131.7332 0000694 273.9885  86.0888 15.27573566 39046
STARLINK-32427          
1 61848U 24202D   25195.53743028 -.00000370  00000+0 -39298-5 0  9998
2 61848  43.0009 131.8541 0000647 279.2095  80.8683 15.27572754 39032
STARLINK-32346          
1 61849U 24202E   25195.21434491 -.00006958  00000+0 -24335-3 0  9997
2 61849  43.0011 133.7306 0001128 294.2189  65.8545 15.27606997 38982
STARLINK-32330          
1 61850U 24202F   25195.56424898 -.00000666  00000+0 -14683-4 0  9993
2 61850  43.0025 142.4352 0000947 270.2220  89.8523 15.27570630 39498
STARLINK-32379          
1 61851U 24202G   25195.19122472  .00001561  00000+0  66245-4 0  9990
2 61851  42.9988 133.5474 0000311 246.6258 113.4561 15.27560271 38983
STARLINK-32433          
1 61852U 24202H   25195.56810138 -.00000252  00000+0  36223-6 0  9997
2 61852  43.0021 142.4625 0000870 269.2334  90.8418 15.27573408 38926
STARLINK-32394          
1 61853U 24202J   25195.57066612  .00001225  00000+0  54046-4 0  9990
2 61853  43.0023 142.4799 0001208 281.3721  78.6995 15.27568299 38917
STARLINK-32486          
1 61854U 24202K   25195.57452387 -.00000248  00000+0  52656-6 0  9991
2 61854  43.0028 142.5117 0001561 285.1561  74.9118 15.27583468 38926
STARLINK-32391          
1 61855U 24202L   25195.57838398 -.00000855  00000+0 -21530-4 0  9992
2 61855  43.0022 142.5387 0001660 247.8692 112.1984 15.27578901 38911
STARLINK-32483          
1 61856U 24202M   25195.58223517 -.00000384  00000+0 -44436-5 0  9993
2 61856  43.0020 142.5691 0001347 273.8327  86.2370 15.27576224 38921
STARLINK-32451          
1 61857U 24202N   25195.13223358  .00000870  00000+0  41125-4 0  9997
2 61857  43.0018 145.2109 0001267 263.8984  96.1723 15.27577870 38854
STARLINK-32556          
1 61858U 24202P   25195.25915519 -.00001376  00000+0 -40483-4 0  9998
2 61858  43.0009 144.4447 0001265 280.8914  79.1795 15.27588088 38876
STARLINK-32466          
1 61859U 24202Q   25195.20019409  .00000503  00000+0  27819-4 0  9994
2 61859  43.0014 144.8601 0001163 271.8966  88.1752 15.27575723 38867
STARLINK-32316          
1 61860U 24202R   25195.24936044 -.00000029  00000+0  84788-5 0  9996
2 61860  43.0016 140.9071 0001139 253.8098 106.2629 15.27579340 38907
STARLINK-32415          
1 61861U 24202S   25195.20790538  .00000045  00000+0  11172-4 0  9992
2 61861  43.0010 144.9162 0001109 264.3732  95.6994 15.27575981 38853
STARLINK-32393          
1 61862U 24202T   25195.20405030  .00000245  00000+0  18415-4 0  9992
2 61862  43.0010 144.8885 0001049 264.2154  95.8578 15.27576643 38862
STARLINK-32324          
1 61863U 24202U   25195.34638650  .00000149  00000+0  14918-4 0  9991
2 61863  42.9999 144.2348 0001013 265.1961  94.8775 15.27575104 38872
STARLINK-32318          
1 61864U 24202V   25195.54897464  .00000258  00000+0  18903-4 0  9993
2 61864  42.9994 143.1765 0000991 267.6206  92.4532 15.27567249 38913
STARLINK-32401          
1 61865U 24202W   25195.55283042 -.00000790  00000+0 -19212-4 0  9993
2 61865  42.9998 143.2054 0000797 259.7633 100.3129 15.27570252 39493
STARLINK-32588          
1 61866U 24202X   25195.35024145 -.00000238  00000+0  88192-6 0  9990
2 61866  42.9995 144.2640 0000759 264.1569  95.9196 15.27577911 38883
STARLINK-32569          
1 61867U 24202Y   25195.55668578 -.00000583  00000+0 -11691-4 0  9999
2 61867  43.0011 143.2368 0000750 276.1627  83.9139 15.27571460 39495
2024-203A               
1 61869U 24203A   25195.73245686  .00007278  00000+0  34135-3 0  9996
2 61869  97.4617 263.1852 0016020  77.7384 282.5644 15.19852407 37539
2024-203B               
1 61870U 24203B   25195.71225024  .00006511  00000+0  30393-3 0  9991
2 61870  97.4602 263.1616 0015450  76.6288 283.6668 15.20066195 37531
2024-203C               
1 61871U 24203C   25195.71882957  .00006332  00000+0  30560-3 0  9993
2 61871  97.4665 263.3516 0016083  88.3858 271.9218 15.18911699 37534
2024-203D               
1 61872U 24203D   25195.75141241  .00006384  00000+0  30262-3 0  9998
2 61872  97.4675 263.4947 0015156  90.5098 269.7874 15.19544433 37549
STARLINK-11402 [DTC]    
1 61874U 24204A   25195.71698101 -.00006479  00000+0 -48595-4 0  9995
2 61874  53.1607  89.7505 0001427 108.3949 251.7224 15.69740127 39537
STARLINK-11316 [DTC]    
1 61875U 24204B   25195.72178200 -.00001366  00000+0 -64234-5 0  9999
2 61875  53.1591  89.0294 0000852  74.5808 285.5304 15.69710988 39544
STARLINK-11401 [DTC]    
1 61876U 24204C   25195.13904365 -.00000056  00000+0  43896-5 0  9999
2 61876  53.1568  92.5220 0000750  94.9205 265.1899 15.69712599 39443
STARLINK-11321 [DTC]    
1 61877U 24204D   25195.00679854 -.00000971  00000+0 -31666-5 0  9997
2 61877  53.1584  93.1158 0000588  78.0323 282.0761 15.69713827 39410
STARLINK-11314 [DTC]    
1 61878U 24204E   25195.00189300 -.00000434  00000+0  12770-5 0  9998
2 61878  53.1595  93.0842 0001206  70.4506 289.6642 15.69713070 39421
STARLINK-11324 [DTC]    
1 61879U 24204F   25195.44268657 -.00001643  00000+0 -87136-5 0  9992
2 61879  53.1582  90.8541 0000867  83.4761 276.6355 15.69693876 39493
STARLINK-11328 [DTC]    
1 61880U 24204G   25195.43777914  .00000467  00000+0  87128-5 0  9996
2 61880  53.1598  90.8214 0000920  71.7461 288.3657 15.69690604 39497
STARLINK-11329 [DTC]    
1 61881U 24204H   25195.43288088 -.00001851  00000+0 -10433-4 0  9990
2 61881  53.1598  90.7866 0001297  92.7081 267.4085 15.69682385 39499
STARLINK-11398 [DTC]    
1 61882U 24204J   25195.10961397 -.00000877  00000+0 -23828-5 0  9996
2 61882  53.1582  92.3256 0001016  52.1197 307.9912 15.69708850 39441
